[{"OBJECT_NAME":"ONEWEB-0120","OBJECT_ID":"2020-100J","EPOCH":"2026-06-05T11:43:22.278720","MEAN_MOTION":13.12442649,"ECCENTRICITY":0.0001692,"INCLINATION":87.894,"RA_OF_ASC_NODE":352.9982,"ARG_OF_PERICENTER":94.0378,"MEAN_ANOMALY":266.0943,"EPHEMERIS_TYPE":0,"CLASSIFICATION_TYPE":"U","NORAD_CAT_ID":47266,"ELEMENT_SET_NO":999,"REV_AT_EPOCH":26319,"BSTAR":-0.0010452,"MEAN_MOTION_DOT":-3.63e-06,"MEAN_MOTION_DDOT":0.0},{"OBJECT_NAME":"ONEWEB-0121","OBJECT_ID":"2020-100K","EPOCH":"2026-06-05T11:26:05.662752","MEAN_MOTION":13.12441921,"ECCENTRICITY":0.0001843,"INCLINATION":87.8952,"RA_OF_ASC_NODE":352.9859,"ARG_OF_PERICENTER":79.4438,"MEAN_ANOMALY":280.6898,"EPHEMERIS_TYPE":0,"CLASSIFICATION_TYPE":"U","NORAD_CAT_ID":47267,"ELEMENT_SET_NO":999,"REV_AT_EPOCH":26310,"BSTAR":-2.9683e-05,"MEAN_MOTION_DOT":2e-08,"MEAN_MOTION_DDOT":0.0},{"OBJECT_NAME":"ONEWEB-0122","OBJECT_ID":"2020-100L","EPOCH":"2026-06-05T11:17:34.086624","MEAN_MOTION":13.1244041,"ECCENTRICITY":0.0001516,"INCLINATION":87.8956,"RA_OF_ASC_NODE":352.9918,"ARG_OF_PERICENTER":95.9915,"MEAN_ANOMALY":264.1386,"EPHEMERIS_TYPE":0,"CLASSIFICATION_TYPE":"U","NORAD_CAT_ID":47268,"ELEMENT_SET_NO":999,"REV_AT_EPOCH":26301,"BSTAR":0.00022398,"MEAN_MOTION_DOT":9.3e-07,"MEAN_MOTION_DDOT":0.0},{"OBJECT_NAME":"ONEWEB-0123","OBJECT_ID":"2020-100M","EPOCH":"2026-06-05T11:11:28.072896","MEAN_MOTION":13.12442467,"ECCENTRICITY":0.0001868,"INCLINATION":87.8943,"RA_OF_ASC_NODE":353.0015,"ARG_OF_PERICENTER":94.955,"MEAN_ANOMALY":265.1792,"EPHEMERIS_TYPE":0,"CLASSIFICATION_TYPE":"U","NORAD_CAT_ID":47269,"ELEMENT_SET_NO":999,"REV_AT_EPOCH":26315,"BSTAR":0.0005279000000000001,"MEAN_MOTION_DOT":2.03e-06,"MEAN_MOTION_DDOT":0.0},{"OBJECT_NAME":"ONEWEB-0124","OBJECT_ID":"2020-100N","EPOCH":"2026-06-05T10:56:49.835904","MEAN_MOTION":13.12443431,"ECCENTRICITY":0.0001826,"INCLINATION":87.8939,"RA_OF_ASC_NODE":353.0059,"ARG_OF_PERICENTER":86.972,"MEAN_ANOMALY":273.1617,"EPHEMERIS_TYPE":0,"CLASSIFICATION_TYPE":"U","NORAD_CAT_ID":47270,"ELEMENT_SET_NO":999,"REV_AT_EPOCH":26303,"BSTAR":0.0012989999999999998,"MEAN_MOTION_DOT":4.8e-06,"MEAN_MOTION_DDOT":0.0},{"OBJECT_NAME":"ONEWEB-0125","OBJECT_ID":"2020-100P","EPOCH":"2026-06-05T12:14:53.008800","MEAN_MOTION":13.12444878,"ECCENTRICITY":0.0002048,"INCLINATION":87.8951,"RA_OF_ASC_NODE":352.9772,"ARG_OF_PERICENTER":84.049,"MEAN_ANOMALY":276.0872,"EPHEMERIS_TYPE":0,"CLASSIFICATION_TYPE":"U","NORAD_CAT_ID":47271,"ELEMENT_SET_NO":999,"REV_AT_EPOCH":26310,"BSTAR":-0.00064837,"MEAN_MOTION_DOT":-2.21e-06,"MEAN_MOTION_DDOT":0.0},{"OBJECT_NAME":"ONEWEB-0126","OBJECT_ID":"2020-100Q","EPOCH":"2026-06-05T10:54:35.431200","MEAN_MOTION":13.12442233,"ECCENTRICITY":0.0001732,"INCLINATION":87.8946,"RA_OF_ASC_NODE":353.005,"ARG_OF_PERICENTER":91.8782,"MEAN_ANOMALY":268.2545,"EPHEMERIS_TYPE":0,"CLASSIFICATION_TYPE":"U","NORAD_CAT_ID":47272,"ELEMENT_SET_NO":999,"REV_AT_EPOCH":26316,"BSTAR":0.0011409999999999999,"MEAN_MOTION_DOT":4.23e-06,"MEAN_MOTION_DDOT":0.0},{"OBJECT_NAME":"ONEWEB-0127","OBJECT_ID":"2020-100R","EPOCH":"2026-06-05T11:55:21.441216","MEAN_MOTION":13.12443716,"ECCENTRICITY":0.0001775,"INCLINATION":87.894,"RA_OF_ASC_NODE":352.9957,"ARG_OF_PERICENTER":94.1724,"MEAN_ANOMALY":265.9607,"EPHEMERIS_TYPE":0,"CLASSIFICATION_TYPE":"U","NORAD_CAT_ID":47273,"ELEMENT_SET_NO":999,"REV_AT_EPOCH":26319,"BSTAR":-0.0008542,"MEAN_MOTION_DOT":-2.95e-06,"MEAN_MOTION_DDOT":0.0},{"OBJECT_NAME":"ONEWEB-0128","OBJECT_ID":"2020-100S","EPOCH":"2026-06-05T12:27:04.552416","MEAN_MOTION":13.12443299,"ECCENTRICITY":0.0001521,"INCLINATION":87.8937,"RA_OF_ASC_NODE":353.0051,"ARG_OF_PERICENTER":81.8726,"MEAN_ANOMALY":278.2575,"EPHEMERIS_TYPE":0,"CLASSIFICATION_TYPE":"U","NORAD_CAT_ID":47274,"ELEMENT_SET_NO":999,"REV_AT_EPOCH":26321,"BSTAR":9.832100000000001e-05,"MEAN_MOTION_DOT":4.8e-07,"MEAN_MOTION_DDOT":0.0},{"OBJECT_NAME":"ONEWEB-0129","OBJECT_ID":"2020-100T","EPOCH":"2026-06-05T11:57:47.824416","MEAN_MOTION":13.12442716,"ECCENTRICITY":0.0001756,"INCLINATION":87.8949,"RA_OF_ASC_NODE":352.9818,"ARG_OF_PERICENTER":122.6165,"MEAN_ANOMALY":237.5133,"EPHEMERIS_TYPE":0,"CLASSIFICATION_TYPE":"U","NORAD_CAT_ID":47275,"ELEMENT_SET_NO":999,"REV_AT_EPOCH":26314,"BSTAR":-0.0012794,"MEAN_MOTION_DOT":-4.48e-06,"MEAN_MOTION_DDOT":0.0},{"OBJECT_NAME":"ONEWEB-0130","OBJECT_ID":"2020-100U","EPOCH":"2026-06-05T10:47:04.182144","MEAN_MOTION":13.12443529,"ECCENTRICITY":0.0001695,"INCLINATION":87.895,"RA_OF_ASC_NODE":352.9865,"ARG_OF_PERICENTER":92.1944,"MEAN_ANOMALY":267.9379,"EPHEMERIS_TYPE":0,"CLASSIFICATION_TYPE":"U","NORAD_CAT_ID":47276,"ELEMENT_SET_NO":999,"REV_AT_EPOCH":26310,"BSTAR":0.0011496000000000002,"MEAN_MOTION_DOT":4.26e-06,"MEAN_MOTION_DDOT":0.0},{"OBJECT_NAME":"ONEWEB-0131","OBJECT_ID":"2020-100V","EPOCH":"2026-06-05T12:31:57.711936","MEAN_MOTION":13.12444083,"ECCENTRICITY":0.0001733,"INCLINATION":87.8938,"RA_OF_ASC_NODE":352.9917,"ARG_OF_PERICENTER":89.0953,"MEAN_ANOMALY":271.0374,"EPHEMERIS_TYPE":0,"CLASSIFICATION_TYPE":"U","NORAD_CAT_ID":47277,"ELEMENT_SET_NO":999,"REV_AT_EPOCH":26315,"BSTAR":0.00048044,"MEAN_MOTION_DOT":1.86e-06,"MEAN_MOTION_DDOT":0.0},{"OBJECT_NAME":"ONEWEB-0132","OBJECT_ID":"2020-100W","EPOCH":"2026-06-05T11:23:39.750432","MEAN_MOTION":13.1244223,"ECCENTRICITY":0.0001715,"INCLINATION":87.8943,"RA_OF_ASC_NODE":353.0025,"ARG_OF_PERICENTER":85.7756,"MEAN_ANOMALY":274.3568,"EPHEMERIS_TYPE":0,"CLASSIFICATION_TYPE":"U","NORAD_CAT_ID":47278,"ELEMENT_SET_NO":999,"REV_AT_EPOCH":26304,"BSTAR":0.00015692,"MEAN_MOTION_DOT":6.9e-07,"MEAN_MOTION_DDOT":0.0},{"OBJECT_NAME":"ONEWEB-0133","OBJECT_ID":"2020-100X","EPOCH":"2026-06-05T11:47:50.580096","MEAN_MOTION":13.12443401,"ECCENTRICITY":0.0001651,"INCLINATION":87.8953,"RA_OF_ASC_NODE":352.9737,"ARG_OF_PERICENTER":91.2803,"MEAN_ANOMALY":268.8515,"EPHEMERIS_TYPE":0,"CLASSIFICATION_TYPE":"U","NORAD_CAT_ID":47279,"ELEMENT_SET_NO":999,"REV_AT_EPOCH":26320,"BSTAR":-0.0013639000000000001,"MEAN_MOTION_DOT":-4.78e-06,"MEAN_MOTION_DDOT":0.0},{"OBJECT_NAME":"ONEWEB-0134","OBJECT_ID":"2020-100Y","EPOCH":"2026-06-05T11:04:08.353056","MEAN_MOTION":13.12443271,"ECCENTRICITY":0.0001521,"INCLINATION":87.8953,"RA_OF_ASC_NODE":352.9772,"ARG_OF_PERICENTER":92.7757,"MEAN_ANOMALY":267.3546,"EPHEMERIS_TYPE":0,"CLASSIFICATION_TYPE":"U","NORAD_CAT_ID":47280,"ELEMENT_SET_NO":999,"REV_AT_EPOCH":26317,"BSTAR":0.0012612,"MEAN_MOTION_DOT":4.66e-06,"MEAN_MOTION_DDOT":0.0},{"OBJECT_NAME":"ONEWEB-0135","OBJECT_ID":"2020-100Z","EPOCH":"2026-06-05T12:12:26.464032","MEAN_MOTION":13.12444399,"ECCENTRICITY":0.0001448,"INCLINATION":87.894,"RA_OF_ASC_NODE":352.9922,"ARG_OF_PERICENTER":88.26,"MEAN_ANOMALY":271.8695,"EPHEMERIS_TYPE":0,"CLASSIFICATION_TYPE":"U","NORAD_CAT_ID":47281,"ELEMENT_SET_NO":999,"REV_AT_EPOCH":26320,"BSTAR":-0.00069138,"MEAN_MOTION_DOT":-2.36e-06,"MEAN_MOTION_DDOT":0.0}]